OBJECT_NAME,OBJECT_ID,EPOCH,MEAN_MOTION,ECCENTRICITY,INCLINATION,RA_OF_ASC_NODE,ARG_OF_PERICENTER,MEAN_ANOMALY,EPHEMERIS_TYPE,CLASSIFICATION_TYPE,NORAD_CAT_ID,ELEMENT_SET_NO,REV_AT_EPOCH,BSTAR,MEAN_MOTION_DOT,MEAN_MOTION_DDOT
TELSTAR 12V,2015-068A,2026-07-02T19:02:40.381152,1.00271494,.0002506,0.0182,29.6084,67.7828,94.1143,0,U,41036,999,3878,0,-.108E-5,0
ELEKTRO-L 2,2015-074A,2026-07-03T10:26:36.307680,1.00273590,.0000658,6.7323,70.3254,244.6432,108.5967,0,U,41105,999,3866,0,-.109E-5,0
COSMOS 2513,2015-075A,2026-07-03T21:09:38.695104,1.00273337,.0003109,0.0647,103.2909,338.5789,237.6915,0,U,41121,999,3871,0,-.127E-5,0
EXPRESS-AMU1,2015-082A,2026-07-02T20:40:55.313184,1.00275787,.00030335,0.0176,339.5708,131.2025,156.4779,0,U,41191,999,3842,0,.166E-5,0
GAOFEN-4,2015-083A,2026-07-03T21:16:53.001984,1.00273340,.0004183,0.3979,83.8999,117.0638,145.8621,0,U,41194,999,3869,0,-.323E-5,0
BELINTERSAT-1,2016-001A,2026-07-02T18:24:59.084064,1.00273073,.00017208,0.0064,58.6701,11.2750,178.5985,0,U,41238,999,3839,0,.117E-5,0
IRNSS-1E,2016-003A,2026-06-29T19:51:21.425184,1.00272765,.00192006,33.2608,59.5670,178.7998,89.1855,0,U,41241,999,3820,0,-.31E-5,0
EUTELSAT 9B,2016-005A,2026-07-02T19:09:29.752128,1.00271772,.00015499,0.0579,69.6460,8.0494,139.4966,0,U,41310,999,3827,0,.72E-6,0
SES-9,2016-013A,2026-07-02T19:34:49.099584,1.00269164,.00025085,0.0192,321.8365,134.2194,226.7945,0,U,41380,999,3759,0,-.334E-5,0
EUTELSAT 65 WEST A,2016-014A,2026-07-02T10:15:01.840032,1.00269778,.0002751,0.0835,302.9756,158.9452,267.0913,0,U,41382,999,3767,0,-.266E-5,0
IRNSS-1F,2016-015A,2026-07-02T18:59:41.148672,1.00275352,.00174274,5.3872,96.4274,183.9956,317.7701,0,U,41384,999,3782,0,.166E-5,0
BEIDOU-2 IGSO-6,2016-021A,2026-06-26T02:38:38.671584,1.00258926,.0057558,60.2385,37.9495,231.0163,137.2672,0,U,41434,999,3757,0,-.145E-5,0
IRNSS-1G,2016-027A,2026-07-02T19:49:11.002656,1.00279606,.00058154,5.2333,97.1137,5.9464,244.6290,0,U,41469,999,3733,0,-.326E-5,0
JCSAT-2B,2016-028A,2026-07-02T18:08:08.668896,1.00270634,.00011873,0.0185,19.0750,82.2893,245.4710,0,U,41471,999,3728,0,-.155E-5,0
THAICOM 8,2016-031A,2026-07-02T18:58:17.063328,1.00272250,.00036377,0.0533,29.4549,39.8925,214.5458,0,U,41552,999,3687,0,-.111E-5,0
INTELSAT 31 (IS-31),2016-035A,2026-07-02T13:31:51.138048,1.00274605,.00005661,0.0275,259.9848,356.1386,132.3882,0,U,41581,999,3683,0,-.141E-5,0
BEIDOU-2 G7,2016-037A,2026-07-03T09:19:42.663072,1.00269039,.00067343,1.7580,69.4410,4.0883,98.3451,0,U,41586,999,705,0,-.343E-5,0
ABS-2A (MONGOLSAT-1),2016-038A,2026-07-02T18:55:07.569120,1.00268399,.00017037,0.0245,27.4936,22.7386,229.1190,0,U,41588,999,3686,0,0,0
EUTELSAT 117 WEST B,2016-038B,2026-07-02T15:08:14.201088,1.00268475,.00003281,0.0082,201.6637,106.1903,82.8636,0,U,41589,999,3681,0,0,0
BRISAT,2016-039A,2026-07-02T16:44:02.918400,1.00272235,.00023744,0.0191,357.6914,96.7774,227.7753,0,U,41591,999,3676,0,0,0
ECHOSTAR 18,2016-039B,2026-07-02T18:49:19.161984,1.00267824,.00016521,0.0248,39.9933,65.0389,36.7534,0,U,41592,999,3678,0,0,0
MUOS-5,2016-041A,2026-07-02T16:53:47.601888,1.00273111,.0198514,2.1716,301.9328,260.5727,226.5195,0,U,41622,999,3724,0,-.11E-5,0
TIANTONG-1 1,2016-048A,2026-07-03T12:42:22.788288,1.00267793,.00057839,3.8786,43.5370,55.1024,114.8755,0,U,41725,999,3643,0,-.307E-5,0
JCSAT-16,2016-050A,2026-07-02T20:35:34.014048,1.00270937,.00012161,0.0184,22.7269,83.0580,267.9549,0,U,41729,999,3622,0,-.24E-5,0
USA 270,2016-052A,2026-06-25T15:01:47.554176,0.99500516,.0000668,4.2178,77.0981,157.1810,56.2495,0,U,41744,999,2821,0,-.284E-5,0
USA 271,2016-052B,2026-06-25T18:13:09.824736,0.99833204,.0001955,4.1909,77.1447,290.7679,281.9940,0,U,41745,999,2800,0,-.236E-5,0
INTELSAT 36 (IS-36),2016-053A,2026-07-02T19:50:53.671776,1.00270238,.00020071,0.0098,12.9079,336.4355,297.7405,0,U,41747,999,3611,0,-.13E-6,0
INSAT-3DR,2016-054A,2026-07-02T10:54:40.578912,1.00272241,.0010094,0.1421,85.9447,186.2693,245.9301,0,U,41752,999,3597,0,-.66E-6,0
GSAT-18,2016-060A,2026-07-02T02:21:28.546848,1.00269601,.00058652,0.0191,46.8359,29.5242,313.1304,0,U,41793,999,3567,0,0,0
SKY MUSTER 2 (NBN1B),2016-060B,2026-07-02T16:42:51.196896,1.00266625,.00017116,0.0194,20.6139,87.1525,208.4708,0,U,41794,999,3567,0,0,0
HIMAWARI-9,2016-064A,2026-07-02T16:41:28.737600,1.00268231,.00014383,0.0302,267.9360,225.4185,178.4790,0,U,41836,999,3536,0,-.265E-5,0
SHIJIAN-17 (SJ-17),2016-065A,2026-07-02T09:51:41.576832,0.99860955,.0002197,5.7891,72.4241,35.3187,173.7243,0,U,41838,999,3535,0,.131E-5,0
GOES 16,2016-071A,2026-07-02T16:54:17.554176,1.00272031,.00005625,0.3771,85.5912,33.2401,310.7945,0,U,41866,999,3525,0,-.8E-6,0
TIANLIAN 1-04,2016-072A,2026-07-03T07:59:38.562144,1.00275040,.00435784,0.9098,82.8084,90.4618,44.8571,0,U,41869,999,3546,0,.42E-6,0
WGS F8 (USA 272),2016-075A,2026-07-02T20:39:55.799136,1.00267189,.00000487,0.0477,61.7262,6.6830,312.3318,0,U,41879,999,3497,0,0,0
FENGYUN 4A,2016-077A,2026-07-03T12:48:44.677152,1.00275570,.00079346,2.3619,80.1088,157.9627,359.4201,0,U,41882,999,3509,0,-.346E-5,0
ECHOSTAR 19,2016-079A,2026-07-02T15:13:51.162816,1.00276643,.0001703,0.0183,29.6206,84.7699,297.6529,0,U,41893,999,3485,0,-.129E-5,0
JCSAT-110A (JCSAT-15),2016-082A,2026-07-02T21:18:08.284896,1.00270379,.00008027,0.0176,15.8785,94.2248,240.4195,0,U,41903,999,3491,0,-.34E-5,0
STAR ONE D1,2016-082B,2026-07-02T13:34:58.339200,1.00268075,.0002154,0.0416,61.8527,57.7959,280.7351,0,U,41904,999,3492,0,0,0
TJS-2,2017-001A,2026-07-02T19:14:36.529152,1.00273104,.00008469,0.8714,85.1414,58.4842,132.4186,0,U,41911,999,3487,0,.3E-7,0
SBIRS GEO-4 (USA 273),2017-004A,2026-07-02T20:23:27.648384,1.00287153,.00029706,2.2711,43.6757,58.6191,145.5771,0,U,41937,999,3475,0,.136E-5,0
HISPASAT 36W-1,2017-006A,2026-07-02T18:56:40.956288,1.00269597,.00008134,0.0045,259.3148,212.5593,57.1200,0,U,41942,999,3440,0,-.234E-5,0
TELKOM 3S,2017-007A,2026-07-02T19:45:53.928576,1.00269766,.00024463,0.0158,320.7379,142.2908,232.2974,0,U,41944,999,3429,0,-.352E-5,0
INTELSAT 32E (IS-32E),2017-007B,2026-07-02T10:21:16.242336,1.00263397,.00009542,0.0218,28.0694,325.1520,39.3916,0,U,41945,999,3437,0,0,0
ECHOSTAR 23,2017-014A,2026-07-02T15:10:14.010240,1.00268078,.00018629,0.0187,36.0750,59.4884,302.7662,0,U,42070,999,3407,0,-.46E-6,0
WGS F9 (USA 275),2017-016A,2026-07-02T17:20:45.828096,1.00269721,.00005019,0.0190,4.1364,158.7649,6.0626,0,U,42075,999,3405,0,-.86E-6,0
SES-10,2017-017A,2026-07-02T13:39:50.372064,1.00273517,.0003014,0.0186,42.4916,63.1872,312.9916,0,U,42432,999,3390,0,-.262E-5,0
CHINASAT 16 (SJ-13),2017-018A,2026-07-03T05:54:11.545344,1.00274596,.00044321,0.0967,89.1400,130.5966,260.5869,0,U,42662,999,3391,0,-.341E-5,0
KOREASAT 7,2017-023A,2026-07-02T19:42:43.936704,1.00267351,.00006844,0.0213,341.6245,86.5135,264.2568,0,U,42691,999,3352,0,-.351E-5,0
SGDC,2017-023B,2026-07-02T10:17:36.526272,1.00270805,.0002785,0.0108,331.8007,135.0664,253.1593,0,U,42692,999,3355,0,-.239E-5,0
GSAT-9,2017-024A,2026-07-02T21:08:34.541376,1.00272566,.00021354,0.0570,90.9879,20.9186,223.4697,0,U,42695,999,3345,0,-.276E-5,0
INMARSAT 5-F4,2017-025A,2026-07-02T20:58:51.178944,1.00269474,.00005087,0.0246,41.3937,138.1758,112.5603,0,U,42698,999,3343,0,0,0
SES-15,2017-026A,2026-07-02T16:47:25.712160,1.00268893,.00006496,0.0224,333.2991,116.3241,313.8103,0,U,42709,999,758,0,.71E-6,0
QZS-2 (MICHIBIKI-2),2017-028A,2026-07-02T11:16:48.921024,1.00279990,.0758655,39.4044,242.9285,269.4438,79.5216,0,U,42738,999,777,0,-.108E-5,0
VIASAT-2,2017-029A,2026-07-02T13:38:57.954912,1.00269077,.0000414,0.0220,295.9562,128.6843,350.8345,0,U,42740,999,3335,0,-.254E-5,0
EUTELSAT 172B,2017-029B,2026-07-02T18:13:15.679200,1.00271322,.00002475,0.0270,121.0065,314.9403,290.1642,0,U,42741,999,3389,0,.5E-7,0
GSAT-19,2017-031A,2026-07-02T18:21:48.608352,1.00273565,.00069353,0.0038,122.7837,317.7152,163.6350,0,U,42747,999,3330,0,.136E-5,0
ECHOSTAR 21,2017-032A,2026-07-02T19:09:52.216992,1.00270475,.0002533,1.7698,356.6876,92.9917,128.8898,0,U,42749,999,3325,0,.77E-6,0
BULGARIASAT-1,2017-038A,2026-07-02T17:24:45.444672,1.00271110,.00030348,0.0440,77.6640,29.3891,76.7820,0,U,42801,999,3300,0,.22E-6,0
HELLAS-SAT 3,2017-040A,2026-07-02T19:17:58.938432,1.00272220,.00040428,0.0510,48.7345,15.5883,185.0033,0,U,42814,999,3296,0,.163E-5,0
GSAT-17,2017-040B,2026-07-02T19:17:19.757760,1.00270421,.00014046,0.0418,87.7648,190.6329,25.2709,0,U,42815,999,3294,0,-.247E-5,0
INTELSAT 35E (IS-35E),2017-041A,2026-07-02T18:57:03.420288,1.00271294,.00019807,0.0227,35.9920,62.3412,72.2547,0,U,42818,999,3297,0,0,0
COSMOS 2520,2017-046A,2026-07-02T05:38:27.625344,1.00268661,.0000565,0.0408,105.0003,9.5607,295.2988,0,U,42907,999,3254,0,.148E-5,0
TDRS 13,2017-047A,2026-07-02T17:21:00.803808,1.00272517,.0015143,3.4552,3.0989,108.9450,57.5559,0,U,42915,999,3250,0,-.89E-6,0
QZS-3 (MICHIBIKI-3),2017-048A,2026-07-02T19:55:25.142304,1.00268778,.00022283,0.0766,134.3955,325.6392,246.7034,0,U,42917,999,3241,0,-.337E-5,0
AMAZONAS 5,2017-053A,2026-07-02T05:08:15.520128,1.00272699,.0001664,0.0325,325.1790,101.7064,229.4374,0,U,42934,999,3219,0,-.272E-5,0
ASIASAT 9,2017-057A,2026-07-03T07:40:19.360128,1.00263851,.00022817,0.0460,63.8286,35.1460,59.6195,0,U,42942,999,3202,0,0,0
INTELSAT 37E (IS-37E),2017-059A,2026-07-02T19:01:47.964864,1.00272973,.00028366,0.0182,34.0408,68.0515,86.1828,0,U,42950,999,3222,0,-.13E-5,0
BSAT-4A,2017-059B,2026-07-02T21:10:32.102400,1.00271466,.00039382,0.0364,339.7052,98.8918,269.7892,0,U,42951,999,3195,0,-.339E-5,0
QZS-4 (MICHIBIKI-4),2017-062A,2026-07-02T18:25:04.515168,1.00294869,.07468178,40.1001,343.2884,268.3349,83.7779,0,U,42965,999,3196,0,-.316E-5,0
SES-11 (ECHOSTAR 105),2017-063A,2026-07-02T16:54:17.554176,1.00271625,.0002934,0.0197,332.7960,127.7280,328.8454,0,U,42967,999,3187,0,-.79E-6,0
KOREASAT 5A,2017-067A,2026-07-02T19:44:26.359584,1.00269280,.00009018,0.0246,300.5354,152.9445,236.6216,0,U,42984,999,3168,0,-.347E-5,0
